
# Worst residual: 70.22 km
# MJD 59886.000000 (2022 Nov  3  0:00)
A10IJxB = A10Ist3
1 79982U 22999ZZH 22307.49919926  .00000000  00000-0  00000-0 0 17011
2 79982 029.8999 339.8184 6399448 201.9061 268.3518 01.02772541    03

# Worst residual: 79.06 km
# MJD 59887.000000 (2022 Nov  4  0:00)
A10IJxB = A10Ist3
1 79982U 22999ZZH 22308.49919926  .00000000  00000-0  00000-0 0 17012
2 79982 029.8418 339.7295 6372449 202.3582 278.2717 01.02783195    04

# Worst residual: 86.73 km
# MJD 59888.000000 (2022 Nov  5  0:00)
A10IJxB = A10Ist3
1 79982U 22999ZZH 22309.49919926  .00000000  00000-0  00000-0 0 17013
2 79982 029.7845 339.6492 6343401 202.8039 288.1861 01.02802242    08

# Worst residual: 92.57 km
# MJD 59889.000000 (2022 Nov  6  0:00)
A10IJxB = A10Ist3
1 79982U 22999ZZH 22310.49919926  .00000000  00000-0  00000-0 0 17015
2 79982 029.7291 339.5648 6313515 203.2528 298.1132 01.02820220    04

# Worst residual: 93.09 km
# MJD 59890.000000 (2022 Nov  7  0:00)
A10IJxB = A10Ist3
1 79982U 22999ZZH 22311.49919926  .00000000  00000-0  00000-0 0 17016
2 79982 029.6769 339.4815 6283452 203.6988 308.0546 01.02838269    00

# Worst residual: 92.48 km
# MJD 59891.000000 (2022 Nov  8  0:00)
A10IJxB = A10Ist3
1 79982U 22999ZZH 22312.49919926  .00000000  00000-0  00000-0 0 17017
2 79982 029.6239 339.3977 6251526 204.1411 318.0044 01.02868163    04

# Worst residual: 93.96 km
# MJD 59892.000000 (2022 Nov  9  0:00)
A10IJxB = A10Ist3
1 79982U 22999ZZH 22313.49919926  .00000000  00000-0  00000-0 0 17018
2 79982 029.5747 339.3166 6219360 204.5817 327.9628 01.02897036    09

# Worst residual: 102.14 km
# MJD 59893.000000 (2022 Nov 10  0:00)
A10IJxB = A10Ist3
1 79982U 22999ZZH 22314.49919926  .00000000  00000-0  00000-0 0 17019
2 79982 029.5270 339.2372 6186372 205.0156 337.9386 01.02926955    01

# Worst residual: 107.00 km
# MJD 59894.000000 (2022 Nov 11  0:00)
A10IJxB = A10Ist3
1 79982U 22999ZZH 22315.49919926  .00000000  00000-0  00000-0 0 17010
2 79982 029.4803 339.1587 6153018 205.4434 347.9317 01.02957402    09

# Worst residual: 108.48 km
# MJD 59895.000000 (2022 Nov 12  0:00)
A10IJxB = A10Ist3
1 79982U 22999ZZH 22316.49919926  .00000000  00000-0  00000-0 0 17011
2 79982 029.4348 339.0814 6119397 205.8692 357.9332 01.02987715    05

# Worst residual: 105.26 km
# MJD 59896.000000 (2022 Nov 13  0:00)
A10IJxB = A10Ist3
1 79982U 22999ZZH 22317.49919926  .00000000  00000-0  00000-0 0 17012
2 79982 029.3910 338.9928 6085428 206.3043 007.9370 01.03010299    05

# Worst residual: 99.94 km
# MJD 59897.000000 (2022 Nov 14  0:00)
A10IJxB = A10Ist3
1 79982U 22999ZZH 22318.49919926  .00000000  00000-0  00000-0 0 17013
2 79982 029.3457 338.9200 6050856 206.7262 017.9532 01.03033174    06

# Worst residual: 93.17 km
# MJD 59898.000000 (2022 Nov 15  0:00)
A10IJxB = A10Ist3
1 79982U 22999ZZH 22319.49919926  .00000000  00000-0  00000-0 0 17014
2 79982 029.3079 338.8596 6015550 207.1284 027.9875 01.03054167    00

# Worst residual: 86.73 km
# MJD 59899.000000 (2022 Nov 16  0:00)
A10IJxB = A10Ist3
1 79982U 22999ZZH 22320.49919926  .00000000  00000-0  00000-0 0 17016
2 79982 029.2637 338.7820 5979363 207.5427 038.0260 01.03079215    03

# Worst residual: 76.02 km
# MJD 59900.000000 (2022 Nov 17  0:00)
A10IJxB = A10Ist3
1 79982U 22999ZZH 22321.49919926  .00000000  00000-0  00000-0 0 17017
2 79982 029.2237 338.7097 5943365 207.9562 048.0619 01.03089614    05

# Worst residual: 65.86 km
# MJD 59901.000000 (2022 Nov 18  0:00)
A10IJxB = A10Ist3
1 79982U 22999ZZH 22322.49919926  .00000000  00000-0  00000-0 0 17018
2 79982 029.1901 338.6427 5906997 208.3644 058.1033 01.03098685    04

# Worst residual: 67.18 km
# MJD 59902.000000 (2022 Nov 19  0:00)
A10IJxB = A10Ist3
1 79982U 22999ZZH 22323.49919926  .00000000  00000-0  00000-0 0 17019
2 79982 029.1459 338.5670 5870203 208.7760 068.1506 01.03095437    02

# Worst residual: 75.81 km
# MJD 59903.000000 (2022 Nov 20  0:00)
A10IJxB = A10Ist3
1 79982U 22999ZZH 22324.49919926  .00000000  00000-0  00000-0 0 17010
2 79982 029.1085 338.4970 5833293 209.1880 078.1914 01.03091261    00

# Worst residual: 80.72 km
# MJD 59904.000000 (2022 Nov 21  0:00)
A10IJxB = A10Ist3
1 79982U 22999ZZH 22325.49919926  .00000000  00000-0  00000-0 0 17011
2 79982 029.0737 338.4340 5795307 209.6051 088.2185 01.03076468    06

# Worst residual: 93.36 km
# MJD 59905.000000 (2022 Nov 22  0:00)
A10IJxB = A10Ist3
1 79982U 22999ZZH 22326.49919926  .00000000  00000-0  00000-0 0 17012
2 79982 029.0353 338.3588 5757396 210.0196 098.2599 01.03069620    07

# Worst residual: 98.99 km
# MJD 59906.000000 (2022 Nov 23  0:00)
A10IJxB = A10Ist3
1 79982U 22999ZZH 22327.49919926  .00000000  00000-0  00000-0 0 17013
2 79982 028.9899 338.2871 5718639 210.4394 108.2834 01.03049857    09

# Worst residual: 109.38 km
# MJD 59907.000000 (2022 Nov 24  0:00)
A10IJxB = A10Ist3
1 79982U 22999ZZH 22328.49919926  .00000000  00000-0  00000-0 0 17014
2 79982 028.9650 338.2236 5679372 210.8513 118.2893 01.03024498    06

# Worst residual: 113.14 km
# MJD 59908.000000 (2022 Nov 25  0:00)
A10IJxB = A10Ist3
1 79982U 22999ZZH 22329.49919926  .00000000  00000-0  00000-0 0 17015
2 79982 028.9312 338.1579 5639082 211.2677 128.2466 01.02990972    05

# Worst residual: 114.39 km
# MJD 59909.000000 (2022 Nov 26  0:00)
A10IJxB = A10Ist3
1 79982U 22999ZZH 22330.49919926  .00000000  00000-0  00000-0 0 17017
2 79982 028.8980 338.0928 5597865 211.6801 138.1561 01.02952056    04

# Worst residual: 114.40 km
# MJD 59910.000000 (2022 Nov 27  0:00)
A10IJxB = A10Ist3
1 79982U 22999ZZH 22331.49919926  .00000000  00000-0  00000-0 0 17018
2 79982 028.8661 338.0290 5556167 212.0871 148.0108 01.02910282    06

# Worst residual: 113.68 km
# MJD 59911.000000 (2022 Nov 28  0:00)
A10IJxB = A10Ist3
1 79982U 22999ZZH 22332.49919926  .00000000  00000-0  00000-0 0 17019
2 79982 028.8353 337.9667 5514026 212.4921 157.7967 01.02866756    04

# Worst residual: 107.79 km
# MJD 59912.000000 (2022 Nov 29  0:00)
A10IJxB = A10Ist3
1 79982U 22999ZZH 22333.49919926  .00000000  00000-0  00000-0 0 17010
2 79982 028.8051 337.9054 5470849 212.8973 167.5045 01.02819270    09

# Worst residual: 89.47 km
# MJD 59913.000000 (2022 Nov 30  0:00)
A10IJxB = A10Ist3
1 79982U 22999ZZH 22334.49919926  .00000000  00000-0  00000-0 0 17011
2 79982 028.7690 337.8441 5426961 213.3031 177.1284 01.02767100    09

# Worst residual: 72.59 km
# MJD 59914.000000 (2022 Dec  1  0:00)
A10IJxB = A10Ist3
1 79982U 22999ZZH 22335.49919926  .00000000  00000-0  00000-0 0 17012
2 79982 028.7477 337.7846 5380606 213.6920 186.6932 01.02708386    01

# Worst residual: 67.23 km
# MJD 59915.000000 (2022 Dec  2  0:00)
A10IJxB = A10Ist3
1 79982U 22999ZZH 22336.49919926  .00000000  00000-0  00000-0 0 17013
2 79982 028.7217 337.7277 5334599 214.0799 196.1677 01.02649783    07

# Worst residual: 82.25 km
# MJD 59916.000000 (2022 Dec  3  0:00)
A10IJxB = A10Ist3
1 79982U 22999ZZH 22337.49919926  .00000000  00000-0  00000-0 0 17014
2 79982 028.6960 337.6693 5288127 214.4475 205.5775 01.02596360    08
